STARLINK-37780          
1 69340U 26122M   26162.91668981 -.02341746  00000+0 -10432-1 0  9999
2 69340  97.2846 192.0798 0001668  68.2473  38.0494 15.87657712  2556
STARLINK-37781          
1 69341U 26122N   26162.91668981 -.02322431  00000+0 -11297-1 0  9990
2 69341  97.2845 192.0778 0001671  69.0547  33.4011 15.85846921  2508
STARLINK-37782          
1 69342U 26122P   26162.91668981 -.01096127  00000+0 -43126-2 0  9997
2 69342  97.2847 192.0850 0001383  72.2109  45.4492 15.89275210  2509
STARLINK-37776          
1 69343U 26122Q   26162.91668981 -.01234184  43349-3 -42889-2 0  9997
2 69343  97.2848 192.0862 0001415  70.8261  50.5179 15.89430424  2502
STARLINK-37786          
1 69344U 26122R   26162.91668981 -.01228357  43164-3 -41708-2 0  9997
2 69344  97.2856 192.0905 0001333  74.7344  55.9962 15.89893088  2502
STARLINK-37785          
1 69345U 26122S   26162.91668981 -.01229949  43264-3 -41782-2 0  9999
2 69345  97.2853 192.0906 0001349  73.1582  58.3772 15.89883681  2509
STARLINK-37773          
1 69346U 26122T   26162.91668981 -.00631031  12552-3 -20647-2 0  9991
2 69346  97.2857 192.0930 0001349  70.6257  66.1407 15.90548295  2550
STARLINK-37744          
1 69347U 26122U   26162.91668981 -.00637682  12746-3 -21319-2 0  9992
2 69347  97.2859 192.0946 0001036  82.2952  59.1228 15.90122721  2504
STARLINK-37775          
1 69348U 26122V   26162.91668981 -.02760625  19970-2 -91718-2 0  9994
2 69348  97.2860 192.0962 0001719  82.7005  60.3214 15.90484235  2507
STARLINK-37777          
1 69349U 26122W   26162.91668981 -.02706960  19228-2 -89455-2 0  9998
2 69349  97.2863 192.0985 0001844  82.4548  66.3127 15.90588596  2508
STARLINK-37779          
1 69350U 26122X   26162.91668981 -.02685135  18759-2 -92271-2 0  9998
2 69350  97.2866 192.1021 0001808  78.5251  78.6126 15.89812477  2503
STARLINK-37549          
1 69351U 26122Y   26162.91668981 -.02345708  00000+0 -10297-1 0  9992
2 69351  97.2868 192.1003 0001751  82.0425  70.3588 15.87956790  2502
STARLINK-37778          
1 69352U 26122Z   26162.91668981 -.02744025  19849-2 -88781-2 0  9996
2 69352  97.2868 192.1035 0001827  82.4656  78.2400 15.91006286  2503
STARLINK-37651          
1 69353U 26123A   26162.91668981 -.01813427  00000+0 -78056-2 0  9990
2 69353  53.1577 268.2606 0000796  61.6234 232.4007 15.87437433  2308
STARLINK-37652          
1 69354U 26123B   26162.91668981 -.01823810  00000+0 -83708-2 0  9998
2 69354  53.1576 268.2595 0000669  68.0341 226.5159 15.86170886  2301
STARLINK-37593          
1 69355U 26123C   26162.91668981 -.01886106  00000+0 -84085-2 0  9995
2 69355  53.1577 268.2507 0000900  67.8716 230.9801 15.86340552  2354
STARLINK-37597          
1 69356U 26123D   26162.91668981 -.01822108  00000+0 -81263-2 0  9993
2 69356  53.1576 268.2358 0000728  64.6253 241.3821 15.86744974  2351
STARLINK-37598          
1 69357U 26123E   26162.91668981 -.01780847  00000+0 -76701-2 0  9998
2 69357  53.1574 268.2189 0000821  63.5316 250.6731 15.87362982  2353
STARLINK-37602          
1 69358U 26123F   26162.91668981 -.01795088  00000+0 -76930-2 0  9996
2 69358  53.1574 268.2102 0000828  67.8710 250.6235 15.87489221  2356
STARLINK-37600          
1 69359U 26123G   26162.91668981 -.01778234  00000+0 -72923-2 0  9999
2 69359  53.1572 268.1867 0000808  66.5183 263.2705 15.88331925  2350
STARLINK-37599          
1 69360U 26123H   26162.91668981 -.02121016  12041-2 -65740-2 0  9992
2 69360  53.1573 268.1539 0000688  64.3306 281.2461 15.91156653  2309
STARLINK-37039          
1 69361U 26123J   26162.91668981 -.01826736  00000+0 -75353-2 0  9993
2 69361  53.1573 268.1649 0000760  61.3444 278.7955 15.88307277  2308
STARLINK-37040          
1 69362U 26123K   26162.91668981 -.00473494  82829-4 -12978-2 0  9990
2 69362  53.1572 268.1164 0000900  48.5628 314.8036 15.93213856  2304
STARLINK-37582          
1 69363U 26123L   26162.91668981 -.01762059  00000+0 -67778-2 0  9994
2 69363  53.1572 268.1289 0001070  40.4081 317.1707 15.89555055  2302
STARLINK-37309          
1 69364U 26123M   26162.91668981 -.00443437  75745-4 -10887-2 0  9992
2 69364  53.1568 268.0794 0000870  48.0236 333.3798 15.95265242  2449
STARLINK-37436          
1 69365U 26123N   26162.91668981 -.00441271  75581-4 -10485-2 0  9999
2 69365  53.1571 268.0538 0000801  45.0762 348.4410 15.95869160  2442
STARLINK-37581          
1 69366U 26123P   26162.91668981 -.00446006  76641-4 -10820-2 0  9992
2 69366  53.1572 268.0488 0000851  48.0958 347.9606 15.95487573  2291
STARLINK-37683          
1 69367U 26123Q   26162.91668981 -.00451288  78410-4 -10755-2 0  9994
2 69367  53.1572 268.0348 0000886  47.3896 355.2844 15.95817523  2308
STARLINK-37687          
1 69368U 26123R   26162.91668981 -.00404767  66430-4 -89738-3 0  9992
2 69368  53.1572 268.0053 0000867  47.2555   9.6140 15.97115626  2308
